GORIZONT 25             
1 21922U 92017A   13025.91459076 -.00000252  00000-0  10000-3 0  7269
2 21922  13.7621  28.2002 0027770 345.6222  14.3549  0.99848218 76119
GORIZONT 26             
1 22041U 92043A   13026.04838195  .00000041  00000-0  10000-3 0  3574
2 22041  13.6867  29.6554 0030652 135.5772 224.7339  0.99240063 74968
GORIZONT 27             
1 22245U 92082A   13027.45083331  .00000000  00000-0  10000-3 0  8618
2 22245  13.6058  30.2551 0011212 270.1799  89.7570  1.00147505 78170
GORIZONT 28             
1 22880U 93069A   13026.42327790 -.00000299  00000-0  10000-3 0  7424
2 22880  13.2531  33.5110 0035121  36.1818 324.1217  0.99652032 70417
GORIZONT 29             
1 22907U 93072A   13027.12118195  .00000088  00000-0  10000-3 0   713
2 22907  13.2180  33.4181 0009631 242.4851 117.4846  1.00125216 70244
GORIZONT 30             
1 23108U 94030A   13020.38086342 -.00000317  00000-0  10000-3 0  8760
2 23108  13.0873  34.5776 0002137  64.3912 295.6621  1.00236297 68407
GORIZONT 31             
1 23775U 96005A   13027.73818808  .00000000  00000-0  10000-3 0  3695
2 23775  12.2307  39.9521 0020336 100.4317 259.8782  0.99893546 62226
GORIZONT 32             
1 23880U 96034A   13027.06932725 -.00000285  00000-0  10000-3 0  1846
2 23880  12.1023  40.7742 0007557 251.0250 157.3019  1.00164845 61063
GORIZONT 33             
1 26372U 00029A   13026.18719374  .00000101  00000-0  10000-3 0   305
2 26372   9.5591  49.6132 0002517   9.3029 350.7798  1.00363936 46396
